[{"OBJECT_NAME":"STARLINK-36817","OBJECT_ID":"2026-035D","EPOCH":"2026-03-03T14:00:03.000384","MEAN_MOTION":16.0067383,"ECCENTRICITY":0.0001155,"INCLINATION":97.2776,"RA_OF_ASC_NODE":354.4392,"ARG_OF_PERICENTER":90.1991,"MEAN_ANOMALY":3.9095,"EPHEMERIS_TYPE":0,"CLASSIFICATION_TYPE":"U","NORAD_CAT_ID":67882,"ELEMENT_SET_NO":999,"REV_AT_EPOCH":277,"BSTAR":-0.0016516,"MEAN_MOTION_DOT":-0.00867742,"MEAN_MOTION_DDOT":0.00025385},{"OBJECT_NAME":"STARLINK-36856","OBJECT_ID":"2026-035E","EPOCH":"2026-03-03T14:00:03.000384","MEAN_MOTION":16.00567808,"ECCENTRICITY":0.0001197,"INCLINATION":97.2781,"RA_OF_ASC_NODE":354.4378,"ARG_OF_PERICENTER":98.5258,"MEAN_ANOMALY":352.2852,"EPHEMERIS_TYPE":0,"CLASSIFICATION_TYPE":"U","NORAD_CAT_ID":67883,"ELEMENT_SET_NO":999,"REV_AT_EPOCH":277,"BSTAR":-0.0016558,"MEAN_MOTION_DOT":-0.00864727,"MEAN_MOTION_DDOT":0.00025191},{"OBJECT_NAME":"STARLINK-36842","OBJECT_ID":"2026-035F","EPOCH":"2026-03-03T14:00:03.000384","MEAN_MOTION":16.00776963,"ECCENTRICITY":0.0001109,"INCLINATION":97.2777,"RA_OF_ASC_NODE":354.4403,"ARG_OF_PERICENTER":95.6731,"MEAN_ANOMALY":1.5004,"EPHEMERIS_TYPE":0,"CLASSIFICATION_TYPE":"U","NORAD_CAT_ID":67884,"ELEMENT_SET_NO":999,"REV_AT_EPOCH":277,"BSTAR":-0.0016502,"MEAN_MOTION_DOT":-0.00872072,"MEAN_MOTION_DDOT":0.00025651},{"OBJECT_NAME":"STARLINK-36826","OBJECT_ID":"2026-035G","EPOCH":"2026-03-03T14:00:03.000384","MEAN_MOTION":16.00854942,"ECCENTRICITY":0.0001136,"INCLINATION":97.2777,"RA_OF_ASC_NODE":354.4416,"ARG_OF_PERICENTER":85.5217,"MEAN_ANOMALY":14.0731,"EPHEMERIS_TYPE":0,"CLASSIFICATION_TYPE":"U","NORAD_CAT_ID":67885,"ELEMENT_SET_NO":999,"REV_AT_EPOCH":277,"BSTAR":-0.001628,"MEAN_MOTION_DOT":-0.0086426,"MEAN_MOTION_DDOT":0.00025249},{"OBJECT_NAME":"STARLINK-36390","OBJECT_ID":"2026-035H","EPOCH":"2026-03-03T14:00:03.000384","MEAN_MOTION":16.0097837,"ECCENTRICITY":0.0001202,"INCLINATION":97.2774,"RA_OF_ASC_NODE":354.4431,"ARG_OF_PERICENTER":94.7543,"MEAN_ANOMALY":8.6027,"EPHEMERIS_TYPE":0,"CLASSIFICATION_TYPE":"U","NORAD_CAT_ID":67886,"ELEMENT_SET_NO":999,"REV_AT_EPOCH":282,"BSTAR":-0.0016452,"MEAN_MOTION_DOT":-0.00879501,"MEAN_MOTION_DDOT":0.00026119},{"OBJECT_NAME":"STARLINK-36368","OBJECT_ID":"2026-035J","EPOCH":"2026-03-03T14:00:03.000384","MEAN_MOTION":16.01099817,"ECCENTRICITY":0.0001292,"INCLINATION":97.2772,"RA_OF_ASC_NODE":354.4446,"ARG_OF_PERICENTER":106.2695,"MEAN_ANOMALY":0.6544,"EPHEMERIS_TYPE":0,"CLASSIFICATION_TYPE":"U","NORAD_CAT_ID":67887,"ELEMENT_SET_NO":999,"REV_AT_EPOCH":277,"BSTAR":-0.0016897,"MEAN_MOTION_DOT":-0.00909364,"MEAN_MOTION_DDOT":0.00027828},{"OBJECT_NAME":"STARLINK-36801","OBJECT_ID":"2026-035K","EPOCH":"2026-03-03T14:00:03.000384","MEAN_MOTION":16.01232787,"ECCENTRICITY":0.000124,"INCLINATION":97.277,"RA_OF_ASC_NODE":354.446,"ARG_OF_PERICENTER":74.015,"MEAN_ANOMALY":36.3277,"EPHEMERIS_TYPE":0,"CLASSIFICATION_TYPE":"U","NORAD_CAT_ID":67888,"ELEMENT_SET_NO":999,"REV_AT_EPOCH":277,"BSTAR":-0.0017733,"MEAN_MOTION_DOT":-0.00961273,"MEAN_MOTION_DDOT":0.00030893},{"OBJECT_NAME":"STARLINK-36372","OBJECT_ID":"2026-035L","EPOCH":"2026-03-03T14:00:03.000384","MEAN_MOTION":16.01451415,"ECCENTRICITY":0.0001267,"INCLINATION":97.2766,"RA_OF_ASC_NODE":354.4486,"ARG_OF_PERICENTER":76.2123,"MEAN_ANOMALY":40.6975,"EPHEMERIS_TYPE":0,"CLASSIFICATION_TYPE":"U","NORAD_CAT_ID":67889,"ELEMENT_SET_NO":999,"REV_AT_EPOCH":277,"BSTAR":-0.0018585,"MEAN_MOTION_DOT":-0.01019723,"MEAN_MOTION_DDOT":0.0003455},{"OBJECT_NAME":"STARLINK-36363","OBJECT_ID":"2026-035M","EPOCH":"2026-03-03T14:00:03.000384","MEAN_MOTION":16.01360578,"ECCENTRICITY":0.0001312,"INCLINATION":97.277,"RA_OF_ASC_NODE":354.4477,"ARG_OF_PERICENTER":98.2889,"MEAN_ANOMALY":15.9482,"EPHEMERIS_TYPE":0,"CLASSIFICATION_TYPE":"U","NORAD_CAT_ID":67890,"ELEMENT_SET_NO":999,"REV_AT_EPOCH":277,"BSTAR":-0.0018379,"MEAN_MOTION_DOT":-0.01003265,"MEAN_MOTION_DDOT":0.00033489},{"OBJECT_NAME":"STARLINK-36816","OBJECT_ID":"2026-035N","EPOCH":"2026-03-03T14:00:03.000384","MEAN_MOTION":16.02855162,"ECCENTRICITY":0.0001212,"INCLINATION":97.2747,"RA_OF_ASC_NODE":354.4682,"ARG_OF_PERICENTER":93.6864,"MEAN_ANOMALY":72.8164,"EPHEMERIS_TYPE":0,"CLASSIFICATION_TYPE":"U","NORAD_CAT_ID":67891,"ELEMENT_SET_NO":999,"REV_AT_EPOCH":266,"BSTAR":-0.0017578,"MEAN_MOTION_DOT":-0.01046168,"MEAN_MOTION_DDOT":0.0003682},{"OBJECT_NAME":"STARLINK-36813","OBJECT_ID":"2026-035P","EPOCH":"2026-03-03T14:00:03.000384","MEAN_MOTION":16.02198218,"ECCENTRICITY":0.0001374,"INCLINATION":97.2747,"RA_OF_ASC_NODE":354.459,"ARG_OF_PERICENTER":106.1734,"MEAN_ANOMALY":38.2508,"EPHEMERIS_TYPE":0,"CLASSIFICATION_TYPE":"U","NORAD_CAT_ID":67892,"ELEMENT_SET_NO":999,"REV_AT_EPOCH":277,"BSTAR":-0.0018207,"MEAN_MOTION_DOT":-0.01042896,"MEAN_MOTION_DDOT":0.00036328},{"OBJECT_NAME":"STARLINK-36803","OBJECT_ID":"2026-035Q","EPOCH":"2026-03-03T14:00:03.000384","MEAN_MOTION":16.01562898,"ECCENTRICITY":0.0001183,"INCLINATION":97.2765,"RA_OF_ASC_NODE":354.4504,"ARG_OF_PERICENTER":79.4074,"MEAN_ANOMALY":41.6774,"EPHEMERIS_TYPE":0,"CLASSIFICATION_TYPE":"U","NORAD_CAT_ID":67893,"ELEMENT_SET_NO":999,"REV_AT_EPOCH":277,"BSTAR":-0.0018715,"MEAN_MOTION_DOT":-0.01033313,"MEAN_MOTION_DDOT":0.00035453},{"OBJECT_NAME":"STARLINK-36846","OBJECT_ID":"2026-035R","EPOCH":"2026-03-03T14:00:03.000384","MEAN_MOTION":16.01785244,"ECCENTRICITY":0.0001304,"INCLINATION":97.2762,"RA_OF_ASC_NODE":354.4539,"ARG_OF_PERICENTER":97.9758,"MEAN_ANOMALY":31.6036,"EPHEMERIS_TYPE":0,"CLASSIFICATION_TYPE":"U","NORAD_CAT_ID":67894,"ELEMENT_SET_NO":999,"REV_AT_EPOCH":277,"BSTAR":-0.0018638,"MEAN_MOTION_DOT":-0.01042309,"MEAN_MOTION_DDOT":0.00036118},{"OBJECT_NAME":"STARLINK-36866","OBJECT_ID":"2026-035S","EPOCH":"2026-03-03T14:00:03.000384","MEAN_MOTION":16.01888266,"ECCENTRICITY":0.0001201,"INCLINATION":97.276,"RA_OF_ASC_NODE":354.4554,"ARG_OF_PERICENTER":88.8027,"MEAN_ANOMALY":44.4623,"EPHEMERIS_TYPE":0,"CLASSIFICATION_TYPE":"U","NORAD_CAT_ID":67895,"ELEMENT_SET_NO":999,"REV_AT_EPOCH":277,"BSTAR":-0.001858,"MEAN_MOTION_DOT":-0.01045244,"MEAN_MOTION_DDOT":0.0003635},{"OBJECT_NAME":"STARLINK-36877","OBJECT_ID":"2026-035T","EPOCH":"2026-03-03T14:00:03.000384","MEAN_MOTION":16.01676953,"ECCENTRICITY":0.00012,"INCLINATION":97.2761,"RA_OF_ASC_NODE":354.452,"ARG_OF_PERICENTER":73.1923,"MEAN_ANOMALY":52.3197,"EPHEMERIS_TYPE":0,"CLASSIFICATION_TYPE":"U","NORAD_CAT_ID":67896,"ELEMENT_SET_NO":999,"REV_AT_EPOCH":277,"BSTAR":-0.0018709,"MEAN_MOTION_DOT":-0.01039759,"MEAN_MOTION_DDOT":0.0003591},{"OBJECT_NAME":"STARLINK-36870","OBJECT_ID":"2026-035U","EPOCH":"2026-03-03T14:00:03.000384","MEAN_MOTION":16.01999928,"ECCENTRICITY":0.0001237,"INCLINATION":97.2757,"RA_OF_ASC_NODE":354.4569,"ARG_OF_PERICENTER":79.617,"MEAN_ANOMALY":57.8697,"EPHEMERIS_TYPE":0,"CLASSIFICATION_TYPE":"U","NORAD_CAT_ID":67897,"ELEMENT_SET_NO":999,"REV_AT_EPOCH":277,"BSTAR":-0.0018492,"MEAN_MOTION_DOT":-0.01047048,"MEAN_MOTION_DDOT":0.00036513}]
